{
    "links": {
        "self": "http://www.neowsapp.com/rest/v1/neo/3770327?api_key=iIulBulltgU6a56xZRHN4H3l9WmuAYTsLGpBGhQ2"
    },
    "id": "3770327",
    "neo_reference_id": "3770327",
    "name": "(2017 EO)",
    "designation": "2017 EO",
    "nasa_jpl_url": "http://ssd.jpl.nasa.gov/sbdb.cgi?sstr=3770327",
    "absolute_magnitude_h": 23.5,
    "estimated_diameter": {
        "kilometers": {
            "estimated_diameter_min": 0.0530340723,
            "estimated_diameter_max": 0.1185877909
        },
        "meters": {
            "estimated_diameter_min": 53.0340723319,
            "estimated_diameter_max": 118.5877908577
        },
        "miles": {
            "estimated_diameter_min": 0.0329538346,
            "estimated_diameter_max": 0.0736870142
        },
        "feet": {
            "estimated_diameter_min": 173.9963058693,
            "estimated_diameter_max": 389.0675677576
        }
    },
    "is_potentially_hazardous_asteroid": false,
    "close_approach_data": [
        {
            "close_approach_date": "1933-02-23",
            "close_approach_date_full": "1933-Feb-23 18:15",
            "epoch_date_close_approach": -1162964700000,
            "relative_velocity": {
                "kilometers_per_second": "12.9879356548",
                "kilometers_per_hour": "46756.5683571184",
                "miles_per_hour": "29052.7132661217"
            },
            "miss_distance": {
                "astronomical": "0.2329428876",
                "lunar": "90.6147832764",
                "kilometers": "34847759.816609412",
                "miles": "21653393.8688254056"
            },
            "orbiting_body": "Earth"
        },
        {
            "close_approach_date": "2017-03-07",
            "close_approach_date_full": "2017-Mar-07 14:39",
            "epoch_date_close_approach": 1488897540000,
            "relative_velocity": {
                "kilometers_per_second": "9.7833782478",
                "kilometers_per_hour": "35220.1616921701",
                "miles_per_hour": "21884.4388025598"
            },
            "miss_distance": {
                "astronomical": "0.0796273033",
                "lunar": "30.9750209837",
                "kilometers": "11912074.967523971",
                "miles": "7401820.1578579598"
            },
            "orbiting_body": "Earth"
        },
        {
            "close_approach_date": "2123-05-01",
            "close_approach_date_full": "2123-May-01 11:35",
            "epoch_date_close_approach": 4838614500000,
            "relative_velocity": {
                "kilometers_per_second": "15.8716763183",
                "kilometers_per_hour": "57138.034745948",
                "miles_per_hour": "35503.3527564475"
            },
            "miss_distance": {
                "astronomical": "0.4359867904",
                "lunar": "169.5988614656",
                "kilometers": "65222695.191976448",
                "miles": "40527503.5069850624"
            },
            "orbiting_body": "Earth"
        }
    ],
    "orbital_data": {
        "orbit_id": "6",
        "orbit_determination_date": "2017-04-06 08:19:44",
        "first_observation_date": "2017-03-03",
        "last_observation_date": "2017-03-13",
        "data_arc_in_days": 10,
        "observations_used": 35,
        "orbit_uncertainty": "8",
        "minimum_orbit_intersection": ".056983",
        "jupiter_tisserand_invariant": "4.089",
        "epoch_osculation": "2457816.5",
        "eccentricity": ".3854464426506126",
        "semi_major_axis": "1.696854315252603",
        "inclination": "14.05744920364712",
        "ascending_node_longitude": "347.8924555948361",
        "orbital_period": "807.3563449500052",
        "perihelion_distance": "1.042807855742146",
        "perihelion_argument": "194.8508525293122",
        "aphelion_distance": "2.35090077476306",
        "perihelion_time": "2457831.771057213153",
        "mean_anomaly": "353.1906392621767",
        "mean_motion": ".4458997594454932",
        "equinox": "J2000",
        "orbit_class": {
            "orbit_class_type": "AMO",
            "orbit_class_description": "Near-Earth asteroid orbits similar to that of 1221 Amor",
            "orbit_class_range": "1.017 AU < q (perihelion) < 1.3 AU"
        }
    },
    "is_sentry_object": false
}